STARLINK-2633           
1 48435U 21040H   26068.74778098  .00014738  00000+0  52180-3 0  9994
2 48435  53.1552 164.8493 0001243  92.3494 267.7648 15.29371056266860
AL MUNTHER              
1 63240U 25052AG  26068.64540749  .00017933  00000+0  65015-3 0  9992
2 63240  97.4001 323.9152 0008027 130.7043 229.4895 15.28381521 54798
